[{"OBJECT_NAME":"STARLINK-30340","OBJECT_ID":"2023-144W","EPOCH":"2026-03-09T23:09:27.120672","MEAN_MOTION":15.26754223,"ECCENTRICITY":0.00019163,"INCLINATION":43.003,"RA_OF_ASC_NODE":283.2788,"ARG_OF_PERICENTER":285.74,"MEAN_ANOMALY":74.324,"EPHEMERIS_TYPE":0,"CLASSIFICATION_TYPE":"U","NORAD_CAT_ID":57884,"ELEMENT_SET_NO":999,"REV_AT_EPOCH":13768,"BSTAR":0.00014612406,"MEAN_MOTION_DOT":3.663e-5,"MEAN_MOTION_DDOT":0},{"OBJECT_NAME":"ELECTRON KICK STAGE R\/B","OBJECT_ID":"2022-147B","EPOCH":"2026-03-09T22:28:20.187264","MEAN_MOTION":15.28920172,"ECCENTRICITY":0.00095089,"INCLINATION":97.642,"RA_OF_ASC_NODE":85.1135,"ARG_OF_PERICENTER":110.4683,"MEAN_ANOMALY":249.7578,"EPHEMERIS_TYPE":0,"CLASSIFICATION_TYPE":"U","NORAD_CAT_ID":54228,"ELEMENT_SET_NO":999,"REV_AT_EPOCH":18390,"BSTAR":0.00083201931,"MEAN_MOTION_DOT":0.00023374,"MEAN_MOTION_DDOT":0}]
